     3.04           N: GNSS NAV DATA    M: Mixed            RINEX VERSION / TYPE
CONVBIN 2.4.3                           20250709 013957 UTC PGM / RUN BY / DATE 
format: u-blox UBX                                          COMMENT             
log: D:\My_GPsense_data\2025_7_8\corner_arounds_2.ubx       COMMENT             
                                                            END OF HEADER       
C06 2025 07 08 13 00 00  .557653955184D-03  .592210724903D-10  .000000000000D+00
      .100000000000D+01  .552500000000D+02  .166614083002D-08 -.267053220405D+01
      .186171382666D-05  .483062129933D-02  .421470031142D-05  .649339547920D+04
      .219600000000D+06 -.135041773319D-06 -.206231149295D+01  .419095158577D-07
      .946602811932D+00  .111562500000D+03 -.250558643219D+01 -.182293307534D-08
      .433232331580D-09  .000000000000D+00  .101800000000D+04  .000000000000D+00
      .200000000000D+01  .000000000000D+00  .860000000000D-08 -.150000000000D-08
      .222870000000D+06  .000000000000D+00
C16 2025 07 08 13 00 00 -.572372344323D-03 -.361879415323D-10  .000000000000D+00
      .100000000000D+01  .523906250000D+02  .157256550367D-08 -.296722091872D+01
      .172993168235D-05  .881937181111D-02  .442471355200D-05  .649383679199D+04
      .219600000000D+06 -.124797224998D-06 -.206294722887D+01  .153668224812D-07
      .962137285931D+00  .109468750000D+03 -.216509261790D+01 -.173114353765D-08
      .431446542909D-09  .000000000000D+00  .101800000000D+04  .000000000000D+00
      .200000000000D+01  .000000000000D+00 -.280000000000D-08  .460000000000D-08
      .222870000000D+06  .000000000000D+00
C09 2025 07 08 13 00 00 -.348047818989D-03  .361009000471D-10  .000000000000D+00
      .100000000000D+01  .517812500000D+02  .166614083002D-08  .309644562359D+01
      .179279595613D-05  .142947541317D-01  .381143763661D-05  .649333631897D+04
      .219600000000D+06 -.502914190292D-07 -.201547538213D+01  .586733222008D-07
      .951811303538D+00  .122437500000D+03 -.225451092392D+01 -.179150319473D-08
      .382873091058D-09  .000000000000D+00  .101800000000D+04  .000000000000D+00
      .200000000000D+01  .000000000000D+00  .690000000000D-08  .380000000000D-08
      .222870000000D+06  .000000000000D+00
C13 2025 07 08 13 00 00 -.572074204683D-04 -.107895914425D-10  .000000000000D+00
      .100000000000D+01 -.820484375000D+03  .633240662730D-09 -.898605934133D+00
     -.272411853075D-04  .532527675387D-02 -.318977981806D-05  .649322363853D+04
      .219600000000D+06  .488944351673D-07  .204703906122D+01  .293366611004D-07
      .104243004942D+01  .360312500000D+03 -.232013540720D+01 -.209151569145D-08
     -.564666377764D-09  .000000000000D+00  .101800000000D+04  .000000000000D+00
      .200000000000D+01  .000000000000D+00 -.950000000000D-08  .280000000000D-08
      .222870000000D+06  .000000000000D+00
C08 2025 07 08 13 00 00 -.676468247548D-03 -.657163212736D-10  .000000000000D+00
      .100000000000D+01 -.849453125000D+03  .486448833975D-09  .206987740682D+00
     -.281184911728D-04  .316790468059D-02 -.747852027416D-06  .649370365524D+04
      .219600000000D+06  .819563865662D-07  .208087044767D+01 -.330619513988D-07
      .108039901585D+01  .293921875000D+03  .302431425186D+01 -.199579741869D-08
     -.602525097589D-09  .000000000000D+00  .101800000000D+04  .000000000000D+00
      .200000000000D+01  .000000000000D+00  .113000000000D-07 -.700000000000D-09
      .222870000000D+06  .000000000000D+00
C07 2025 07 08 13 00 00  .310321338475D-04  .276623168816D-10  .000000000000D+00
      .400000000000D+01  .775656250000D+03  .109075972023D-08  .175393301245D+01
      .252742320299D-04  .470997474622D-02  .206828117371D-04  .649321495056D+04
      .219600000000D+06 -.754371285439D-07 -.141649442211D+00  .274740159512D-07
      .841346264283D+00 -.452546875000D+03 -.257175134228D+01 -.163756821129D-08
     -.411802867528D-09  .000000000000D+00  .101800000000D+04  .000000000000D+00
      .200000000000D+01  .000000000000D+00  .151000000000D-07  .900000000000D-09
      .222870000000D+06  .000000000000D+00
C10 2025 07 08 13 00 00 -.660874648020D-04 -.202939887117D-10 -.365918233214D-18
      .400000000000D+01  .730062500000D+03  .103754321784D-08  .142760648890D+01
      .239768996835D-04  .108352388488D-01  .210227444768D-04  .649321525002D+04
      .219600000000D+06 -.265426933765D-07 -.146803971158D+00  .140629708767D-06
      .843734973977D+00 -.467281250000D+03 -.244821001416D+01 -.169899934157D-08
     -.477162732886D-09  .000000000000D+00  .101800000000D+04  .000000000000D+00
      .200000000000D+01  .000000000000D+00  .610000000000D-08  .300000000000D-08
      .222870000000D+06  .000000000000D+00
S28 2025  7  8 13 53  4  .000000000000D+00  .000000000000D+00  .222923000000D+06
      .510851704000D+04 -.187500000000D-05 -.375000000000D-07  .100000000000D+01
      .418571287200D+05 -.258125000000D-03  .500000000000D-07  .819200000000D+04
     -.149728000000D+02 -.584000000000D-03  .625000000000D-07  .000000000000D+00
S29 2025  7  8 13 55 28  .123865902424D-06  .109139364213D-10  .222929000000D+06
     -.253762147200D+05  .000000000000D+00  .000000000000D+00  .100000000000D+01
      .336753743200D+05  .000000000000D+00  .000000000000D+00  .819200000000D+04
      .000000000000D+00  .000000000000D+00  .000000000000D+00  .000000000000D+00
S37 2025  7  8 13 55 28  .125728547573D-07  .000000000000D+00  .222938000000D+06
     -.253971087200D+05  .933125000000D-03  .000000000000D+00  .100000000000D+01
      .336699652800D+05  .112125000000D-02  .000000000000D+00  .819200000000D+04
      .227496000000D+02 -.988000000000D-03  .000000000000D+00  .000000000000D+00
S29 2025  7  8 13 56 32  .123865902424D-06  .109139364213D-10  .222989000000D+06
     -.253762147200D+05  .000000000000D+00  .000000000000D+00  .100000000000D+01
      .336753743200D+05  .000000000000D+00  .000000000000D+00  .819200000000D+04
      .000000000000D+00  .000000000000D+00  .000000000000D+00  .000000000000D+00
S37 2025  7  8 13 56 32  .125728547573D-07  .000000000000D+00  .222999000000D+06
     -.253970488800D+05  .937500000000D-03  .000000000000D+00  .100000000000D+01
      .336700370400D+05  .112125000000D-02  .000000000000D+00  .819200000000D+04
      .226860000000D+02 -.996000000000D-03  .000000000000D+00  .000000000000D+00
